{
  "type": "FeatureCollection",
  "features": [
    {
      "type": "Feature",
      "properties": {
        "norad_id": 66695,
        "name": "TRANSPORTER-15 AF",
        "group": "last-30-days",
        "lat": -46.60995239701793,
        "lon": 73.84054419959514,
        "alt_km": 518.9893670132888,
        "timestamp": "2025-12-20T05:41:48.741803+00:00",
        "meta_object_name": "TRANSPORTER-15 AF",
        "meta_object_id": "2025-276AF",
        "meta_epoch": "2025-12-19T22:00:01.999584",
        "meta_mean_motion": 15.18219288,
        "meta_eccentricity": 0.00013071,
        "meta_inclination": 97.4414,
        "meta_ra_of_asc_node": 65.5778,
        "meta_arg_of_pericenter": 146.9547,
        "meta_mean_anomaly": 214.4264,
        "meta_ephemeris_type": 0,
        "meta_classification_type": "U",
        "meta_norad_cat_id": 66695,
        "meta_element_set_no": 999,
        "meta_rev_at_epoch": 130,
        "meta_bstar": -0.001234305,
        "meta_mean_motion_dot": -0.00025213,
        "meta_mean_motion_ddot": 0,
        "tle_line1": "1 66695U 25276AF  25353.91668981 -.00025213  00000+0 -12343-2 0  9999",
        "tle_line2": "2 66695  97.4414  65.5778 0001307 146.9547 214.4264 15.18219288  1300"
      },
      "geometry": {
        "type": "Point",
        "coordinates": [
          73.84054419959514,
          -46.60995239701793
        ]
      }
    },
    {
      "type": "Feature",
      "properties": {
        "norad_id": 66696,
        "name": "TRANSPORTER-15 AG",
        "group": "last-30-days",
        "lat": -68.67355665332423,
        "lon": -133.69348960451325,
        "alt_km": 519.7907968780719,
        "timestamp": "2025-12-20T05:41:48.741814+00:00",
        "meta_object_name": "TRANSPORTER-15 AG",
        "meta_object_id": "2025-276AG",
        "meta_epoch": "2025-12-19T22:00:01.999584",
        "meta_mean_motion": 15.1738547,
        "meta_eccentricity": 0.00022707,
        "meta_inclination": 97.4404,
        "meta_ra_of_asc_node": 65.5479,
        "meta_arg_of_pericenter": 285.1681,
        "meta_mean_anomaly": 14.1411,
        "meta_ephemeris_type": 0,
        "meta_classification_type": "U",
        "meta_norad_cat_id": 66696,
        "meta_element_set_no": 999,
        "meta_rev_at_epoch": 130,
        "meta_bstar": -0.0012182142,
        "meta_mean_motion_dot": -0.00024304,
        "meta_mean_motion_ddot": 0,
        "tle_line1": "1 66696U 25276AG  25353.91668981 -.00024304  00000+0 -12182-2 0  9991",
        "tle_line2": "2 66696  97.4404  65.5479 0002270 285.1681  14.1411 15.17385470  1308"
      },
      "geometry": {
        "type": "Point",
        "coordinates": [
          -133.69348960451325,
          -68.67355665332423
        ]
      }
    },
    {
      "type": "Feature",
      "properties": {
        "norad_id": 66697,
        "name": "TRANSPORTER-15 AH",
        "group": "last-30-days",
        "lat": -51.970570252159696,
        "lon": 75.50617894578399,
        "alt_km": 519.2393141721059,
        "timestamp": "2025-12-20T05:41:48.741826+00:00",
        "meta_object_name": "TRANSPORTER-15 AH",
        "meta_object_id": "2025-276AH",
        "meta_epoch": "2025-12-19T22:00:01.999584",
        "meta_mean_motion": 15.18138372,
        "meta_eccentricity": 0.00011405,
        "meta_inclination": 97.4402,
        "meta_ra_of_asc_node": 65.5723,
        "meta_arg_of_pericenter": 153.2667,
        "meta_mean_anomaly": 202.7278,
        "meta_ephemeris_type": 0,
        "meta_classification_type": "U",
        "meta_norad_cat_id": 66697,
        "meta_element_set_no": 999,
        "meta_rev_at_epoch": 130,
        "meta_bstar": -0.0014130285,
        "meta_mean_motion_dot": -0.00028773,
        "meta_mean_motion_ddot": 0,
        "tle_line1": "1 66697U 25276AH  25353.91668981 -.00028773  00000+0 -14130-2 0  9991",
        "tle_line2": "2 66697  97.4402  65.5723 0001140 153.2667 202.7278 15.18138372  1307"
      },
      "geometry": {
        "type": "Point",
        "coordinates": [
          75.50617894578399,
          -51.970570252159696
        ]
      }
    },
    {
      "type": "Feature",
      "properties": {
        "norad_id": 66698,
        "name": "TRANSPORTER-15 AJ",
        "group": "last-30-days",
        "lat": -64.76855386440474,
        "lon": -130.2390433824531,
        "alt_km": 519.7739283201217,
        "timestamp": "2025-12-20T05:41:48.741837+00:00",
        "meta_object_name": "TRANSPORTER-15 AJ",
        "meta_object_id": "2025-276AJ",
        "meta_epoch": "2025-12-19T22:00:01.999584",
        "meta_mean_motion": 15.17300247,
        "meta_eccentricity": 0.00024842,
        "meta_inclination": 97.4406,
        "meta_ra_of_asc_node": 65.5471,
        "meta_arg_of_pericenter": 273.9067,
        "meta_mean_anomaly": 21.3547,
        "meta_ephemeris_type": 0,
        "meta_classification_type": "U",
        "meta_norad_cat_id": 66698,
        "meta_element_set_no": 999,
        "meta_rev_at_epoch": 130,
        "meta_bstar": -0.0012052972,
        "meta_mean_motion_dot": -0.0002399,
        "meta_mean_motion_ddot": 0,
        "tle_line1": "1 66698U 25276AJ  25353.91668981 -.00023990  00000+0 -12053-2 0  9990",
        "tle_line2": "2 66698  97.4406  65.5471 0002484 273.9067  21.3547 15.17300247  1303"
      },
      "geometry": {
        "type": "Point",
        "coordinates": [
          -130.2390433824531,
          -64.76855386440474
        ]
      }
    },
    {
      "type": "Feature",
      "properties": {
        "norad_id": 66699,
        "name": "TRANSPORTER-15 AK",
        "group": "last-30-days",
        "lat": -65.54918097387215,
        "lon": -130.84072464838303,
        "alt_km": 519.3818688259953,
        "timestamp": "2025-12-20T05:41:48.741849+00:00",
        "meta_object_name": "TRANSPORTER-15 AK",
        "meta_object_id": "2025-276AK",
        "meta_epoch": "2025-12-19T22:00:01.999584",
        "meta_mean_motion": 15.17349745,
        "meta_eccentricity": 0.00028165,
        "meta_inclination": 97.4419,
        "meta_ra_of_asc_node": 65.5511,
        "meta_arg_of_pericenter": 271.5511,
        "meta_mean_anomaly": 24.4758,
        "meta_ephemeris_type": 0,
        "meta_classification_type": "U",
        "meta_norad_cat_id": 66699,
        "meta_element_set_no": 999,
        "meta_rev_at_epoch": 130,
        "meta_bstar": -0.0011611973,
        "meta_mean_motion_dot": -0.0002315,
        "meta_mean_motion_ddot": 0,
        "tle_line1": "1 66699U 25276AK  25353.91668981 -.00023150  00000+0 -11612-2 0  9999",
        "tle_line2": "2 66699  97.4419  65.5511 0002816 271.5511  24.4758 15.17349745  1304"
      },
      "geometry": {
        "type": "Point",
        "coordinates": [
          -130.84072464838303,
          -65.54918097387215
        ]
      }
    },
    {
      "type": "Feature",
      "properties": {
        "norad_id": 66700,
        "name": "TRANSPORTER-15 AL",
        "group": "last-30-days",
        "lat": -49.16328395759525,
        "lon": 74.59838086612889,
        "alt_km": 519.2184184360049,
        "timestamp": "2025-12-20T05:41:48.741862+00:00",
        "meta_object_name": "TRANSPORTER-15 AL",
        "meta_object_id": "2025-276AL",
        "meta_epoch": "2025-12-19T22:00:01.999584",
        "meta_mean_motion": 15.18176807,
        "meta_eccentricity": 0.00015115,
        "meta_inclination": 97.4434,
        "meta_ra_of_asc_node": 65.5826,
        "meta_arg_of_pericenter": 162.2586,
        "meta_mean_anomaly": 196.5591,
        "meta_ephemeris_type": 0,
        "meta_classification_type": "U",
        "meta_norad_cat_id": 66700,
        "meta_element_set_no": 999,
        "meta_rev_at_epoch": 129,
        "meta_bstar": -0.0012642133,
        "meta_mean_motion_dot": -0.00025789,
        "meta_mean_motion_ddot": 0,
        "tle_line1": "1 66700U 25276AL  25353.91668981 -.00025789  00000+0 -12642-2 0  9996",
        "tle_line2": "2 66700  97.4434  65.5826 0001511 162.2586 196.5591 15.18176807  1294"
      },
      "geometry": {
        "type": "Point",
        "coordinates": [
          74.59838086612889,
          -49.16328395759525
        ]
      }
    },
    {
      "type": "Feature",
      "properties": {
        "norad_id": 66701,
        "name": "TRANSPORTER-15 AM",
        "group": "last-30-days",
        "lat": -65.43134109352285,
        "lon": -130.74631053936457,
        "alt_km": 519.4542060082695,
        "timestamp": "2025-12-20T05:41:48.741872+00:00",
        "meta_object_name": "TRANSPORTER-15 AM",
        "meta_object_id": "2025-276AM",
        "meta_epoch": "2025-12-19T22:00:01.999584",
        "meta_mean_motion": 15.17342423,
        "meta_eccentricity": 0.0002714,
        "meta_inclination": 97.4437,
        "meta_ra_of_asc_node": 65.5562,
        "meta_arg_of_pericenter": 270.4808,
        "meta_mean_anomaly": 25.4297,
        "meta_ephemeris_type": 0,
        "meta_classification_type": "U",
        "meta_norad_cat_id": 66701,
        "meta_element_set_no": 999,
        "meta_rev_at_epoch": 130,
        "meta_bstar": -0.0011511627,
        "meta_mean_motion_dot": -0.00022947,
        "meta_mean_motion_ddot": 0,
        "tle_line1": "1 66701U 25276AM  25353.91668981 -.00022947  00000+0 -11512-2 0  9995",
        "tle_line2": "2 66701  97.4437  65.5562 0002714 270.4808  25.4297 15.17342423  1303"
      },
      "geometry": {
        "type": "Point",
        "coordinates": [
          -130.74631053936457,
          -65.43134109352285
        ]
      }
    }
  ]
}